0 TRANSIT 11 DEB
1 38523U 66005N   13282.46427803  .00014073  00000-0  21789-2 0   689
2 38523 089.9999 184.2885 0048562 307.9295 051.7539 14.72361726561216
0 TRANSIT 11 DEB
1 38523U 66005N   13283.48372137  .00012853  00000-0  19896-2 0   692
2 38523 089.9999 184.2888 0048404 304.1600 055.5034 14.72380411561363
0 TRANSIT 11 DEB
1 38523U 66005N   13286.47401510  .00009246  00000-0  14300-2 0   712
2 38523 090.0011 184.2914 0048011 293.4715 066.1461 14.72431612561803
0 TRANSIT 11 DEB
1 38523U 66005N   13286.94973198  .00010200  00000-0  15773-2 0   728
2 38523 090.0004 184.2907 0047961 291.3414 068.2690 14.72441691561875
0 TRANSIT 11 DEB
1 38523U 66005N   13288.98848493  .00014651  00000-0  22626-2 0   733
2 38523 090.0012 184.2903 0047779 283.6552 075.9349 14.72496470562179
0 TRANSIT 11 DEB
1 38523U 66005N   13291.43489617  .00012917  00000-0  19929-2 0   742
2 38523 090.0009 184.2914 0047507 274.4900 085.0893 14.72550036562536
0 TRANSIT 11 DEB
1 38523U 66005N   13295.44410504  .00014567  00000-0  22433-2 0   754
2 38523 089.9994 184.2917 0047292 259.3269 100.2623 14.72633698563123
